GSAT-8                  
1 37605U 11022A   21116.53161588  .00000083  00000-0  00000-0 0  9996
2 37605   0.0414  85.1224 0004418 224.3634 151.7006  1.00269211 34396
ST-2                    
1 37606U 11022B   21116.55087744 -.00000214  00000-0  00000-0 0  9997
2 37606   0.0048 232.8216 0001168 173.8404  94.4227  1.00272630 36450
CHINASAT 10 (ZX 10)     
1 37677U 11026A   21116.54589887 -.00000355  00000-0  00000-0 0  9999
2 37677   0.0738 262.3137 0002443 263.3671 356.1408  1.00273268 36167
TIANLIAN 1-02           
1 37737U 11032A   21116.55479762 -.00000017  00000-0  00000+0 0  9998
2 37737   2.1980  74.0166 0012978  92.9755  58.4881  1.00270777 35897
GSAT-12                 
1 37746U 11034A   21116.09948160  .00000123  00000-0  00000-0 0  9990
2 37746   0.3404  97.0346 0011065 343.5783 217.3791  1.00270947 24663
SES-3                   
1 37748U 11035A   21116.50006880 -.00000104  00000-0  00000-0 0  9993
2 37748   0.0644  77.9706 0002552 304.4313 269.3523  1.00272033 35773
KAZSAT-2                
1 37749U 11035B   21116.55147990 -.00000200  00000-0  00000-0 0  9994
2 37749   0.0246 286.4653 0000964 171.1744  42.1795  1.00271718 34565
BEIDOU 9                
1 37763U 11038A   21116.09856438 -.00000054  00000-0  00000-0 0  9993
2 37763  54.4596 182.5147 0081448 225.5710 297.5655  1.00276047 35819
ASTRA 1N                
1 37775U 11041A   21116.52446253  .00000117  00000-0  00000-0 0  9997
2 37775   0.0778  65.0914 0006060 328.5073  29.1377  1.00270595 25698
BSAT-3C (JCSAT-110R)    
1 37776U 11041B   21116.54589887 -.00000353  00000-0  00000-0 0  9994
2 37776   0.0529  81.0225 0000384  21.6147  58.6245  1.00272575 31656
PAKSAT-1R               
1 37779U 11042A   21116.52821368  .00000151  00000-0  00000-0 0  9994
2 37779   0.0186 287.7956 0008871 106.5858  48.5130  1.00273607 35646
CHINASAT 1A (ZX 1A)     
1 37804U 11047A   21116.54653321 -.00000340  00000-0  00000-0 0  9993
2 37804   0.0575  65.3928 0001440 326.2358 149.7129  1.00270976  8533
SES-2                   
1 37809U 11049A   21116.50320931 -.00000197  00000-0  00000-0 0  9994
2 37809   0.0112 283.2320 0003001 121.1716 264.4599  1.00269105 35131
ARABSAT-5C              
1 37810U 11049B   21116.52454977  .00000121  00000-0  00000-0 0  9992
2 37810   0.0626  17.3819 0002536  77.9436 328.2376  1.00271232 35227
EUTELSAT 7 WEST A       
1 37816U 11051A   21116.30378806 -.00000062  00000-0  00000-0 0  9998
2 37816   0.0836  50.6997 0003246  83.6190 182.2752  1.00270994 35065
QUETZSAT 1              
1 37826U 11054A   21116.50521572 -.00000243  00000-0  00000-0 0  9995
2 37826   0.0139  76.6386 0002703 326.3295 276.6264  1.00268842 31063
INTELSAT 18 (IS-18)     
1 37834U 11056A   21116.56141999  .00000051  00000-0  00000-0 0  9999
2 37834   0.0458  54.7549 0002138 353.3607 188.7737  1.00272351 34985
EUTELSAT 16A            
1 37836U 11057A   21116.52376465  .00000102  00000-0  00000-0 0  9993
2 37836   0.0704  13.9864 0005039  30.7734  14.5222  1.00271316 27143
VIASAT-1                
1 37843U 11059A   21116.49762619 -.00000025  00000-0  00000-0 0  9994
2 37843   0.0179 251.8931 0002456 146.9655 239.8931  1.00269624 28494
ASIASAT 7               
1 37933U 11069A   21116.57480102 -.00000336  00000-0  00000-0 0  9993
2 37933   0.0538  95.9440 0001901 276.8605 154.4138  1.00273402 34630
BEIDOU 10               
1 37948U 11073A   21116.46752981 -.00000157  00000-0  00000-0 0  9990
2 37948  51.0521 294.2254 0070275 213.6072 330.4382  1.00265096 34578
LUCH 5A                 
1 37951U 11074B   21116.63914718 -.00000046  00000-0  00000-0 0  9999
2 37951   3.9921 106.5257 0005251 305.2935 200.0624  1.00269946 34364
NIGCOMSAT 1R            
1 38014U 11077A   21116.52908604  .00000142  00000-0  00000-0 0  9994
2 38014   0.0686  75.5443 0001439   7.2699   4.8791  1.00271601 34123
FENGYUN 2F              
1 38049U 12002A   21116.54295654 -.00000358  00000-0  00000-0 0  9997
2 38049   2.7910  82.3575 0003179  51.5862  28.2039  1.00282358 34068
WGS F4 (USA 233)        
1 38070U 12003A   21116.32289272 -.00000217  00000-0  00000-0 0  9991
2 38070   0.0128 268.2041 0000232  82.3759  68.6118  1.00271280 25317
SES-4                   
1 38087U 12007A   21116.30090927 -.00000170  00000-0  00000-0 0  9996
2 38087   0.0230 302.8645 0002449 100.1535 257.8255  1.00271930 33413
BEIDOU 11               
1 38091U 12008A   21116.09668917  .00000055  00000-0  00000-0 0  9999
2 38091   1.4405  66.0722 0008936 315.5510 286.2582  1.00275641 33641
MUOS-1                  
1 38093U 12009A   21116.54256312 -.00000129  00000-0  00000-0 0  9997
2 38093   2.5983  18.9482 0058842   1.4042 289.7615  1.00272063 33614
INTELSAT 22 (IS-22)     
1 38098U 12011A   21116.53501809 -.00000061  00000-0  00000-0 0  9993
2 38098   0.0089 260.4487 0002655 137.7388  81.2651  1.00273035 32990
APSTAR 7                
1 38107U 12013A   21116.53589043 -.00000104  00000-0  00000-0 0  9990
2 38107   0.0106 225.0412 0003413 194.1297  64.9917  1.00271483 32982
YAHSAT 1B               
1 38245U 12016A   21116.53013287  .00000125  00000-0  00000-0 0  9990
2 38245   0.0241 237.0537 0002312 168.0415  48.0806  1.00267202 26768
AEHF-2 (USA 235)        
1 38254U 12019A   21116.44128774 -.00000276  00000-0  00000-0 0  9999
2 38254   2.5311  55.4397 0007064  20.2530 230.2011  1.00276524 32021
JCSAT-13                
1 38331U 12023A   21116.54531190 -.00000359  00000-0  00000-0 0  9993
2 38331   0.0229 142.5602 0002839 280.6172 111.8935  1.00269392 32703
VINASAT-2               
1 38332U 12023B   21116.54688215 -.00000331  00000-0  00000-0 0  9995
2 38332   0.0149  73.7473 0002971 344.6559 125.0914  1.00270757 27832
NIMIQ 6                 
1 38342U 12026A   21116.50242417 -.00000175  00000-0  00000-0 0  9991
2 38342   0.0196 103.3497 0002710 300.6444 260.4941  1.00268609 31592
CHINASAT 2A (ZX 2A)     
1 38352U 12028A   21116.54285662 -.00000295  00000-0  00000-0 0  9990
2 38352   0.0633  73.4892 0002756 350.6276  84.3149  1.00272844 32559
INTELSAT 19 (IS-19)     
1 38356U 12030A   21116.51715946 -.00000059  00000-0  00000-0 0  9995
2 38356   0.0236 243.5431 0003303 156.0382 167.3280  1.00269989 31616
ECHOSTAR 17             
1 38551U 12035A   21116.49928368 -.00000077  00000-0  00000-0 0  9998
2 38551   0.0261 242.9517 0001850 148.0415 256.3573  1.00268671 32232
METEOSAT-10 (MSG-3)     
1 38552U 12035B   21116.30030243  .00000062  00000-0  00000-0 0  9998
2 38552   1.2103   5.7965 0001329  48.9229 277.5340  1.00280251 32027
SES-5                   
1 38652U 12036A   21116.30623067  .00000032  00000-0  00000-0 0  9999
2 38652   0.0331 297.5745 0002064 101.2888 290.8851  1.00273634 25660
TIANLIAN 1-03           
1 38730U 12040A   21116.59643214  .00000124  00000-0  00000-0 0  9990
2 38730   0.9785  97.0544 0006978 307.1138  45.7788  1.00268849 32163
INTELSAT 20 (IS-20)     
1 38740U 12043A   21116.53423295 -.00000027  00000-0  00000-0 0  9996
2 38740   0.0162 168.3545 0001007  26.9176 280.2932  1.00270381 31927
HYLAS 2                 
1 38741U 12043B   21116.52681791  .00000152  00000-0  00000-0 0  9991
2 38741   0.0181 233.7457 0002332 151.5423  50.1182  1.00270346 31933
INTELSAT 21 (IS-21)     
1 38749U 12045A   21116.25356334 -.00000287  00000-0  00000-0 0  9993
2 38749   0.0390  84.2635 0002670 329.6781 193.8224  1.00271424 31705
ASTRA 2F                
1 38778U 12051A   21116.29633028  .00000148  00000-0  00000-0 0  9999
2 38778   0.0584 234.8582 0000696  59.5152  55.0020  1.00269896 22289
GSAT-10                 
1 38779U 12051B   21116.55117897 -.00000167  00000-0  00000-0 0  9992
2 38779   0.0589  99.5250 0000619 335.8989  60.7816  1.00271678 31294
INTELSAT 23 (IS-23)     
1 38867U 12057A   21116.44078262 -.00000286  00000-0  00000-0 0  9998
2 38867   0.0166 251.5338 0001854 146.1144 282.7113  1.00270697 31126
BEIDOU 16               
1 38953U 12059A   21116.55117897 -.00000176  00000-0  00000-0 0  9994
2 38953   1.8442  84.7312 0009318 283.9340 128.5097  1.00269772 31228
LUCH 5B                 
1 38977U 12061A   21116.15845306 -.00000133  00000-0  00000-0 0  9995
2 38977   6.4025  65.5656 0003862 347.8380 201.7146  1.00272355 31345
YAMAL 300K              
1 38978U 12061B   21116.56336597  .00000069  00000-0  00000-0 0  9995
2 38978   0.0139 190.9303 0000159 315.7404  93.8690  1.00271075 30814
STAR ONE C3             
1 38991U 12062A   21116.50565190 -.00000251  00000-0  00000-0 0  9992
2 38991   0.1015  93.8992 0002633 355.9868 231.8802  1.00271610 30934
EUTELSAT 21B            
1 38992U 12062B   21116.52489872  .00000128  00000-0  00000-0 0  9999
2 38992   0.0706  13.9895 0002561  31.8764  19.4259  1.00271067 31013
ECHOSTAR 16             
1 39008U 12065A   21116.50832390 -.00000284  00000-0  00000-0 0  9990
2 39008   0.0233 247.7112 0002064 141.5669 306.9366  1.00270117 30799
CHINASAT 12 (ZX 12)     
1 39017U 12067A   21116.70118637 -.00000209  00000-0  00000+0 0  9991
2 39017   0.0105 241.8595 0003124 162.7514 150.2159  1.00270584 30887
EUTELSAT 70B            
1 39020U 12069A   21116.53466913 -.00000046  00000-0  00000-0 0  9991
2 39020   0.0669  38.6184 0001058  18.1837  60.9351  1.00273303 30689
YAMAL 402               
1 39022U 12070A   21116.53152865  .00000083  00000-0  00000-0 0  9993
2 39022   0.0451  90.7084 0002902 317.2341  53.0466  1.00272255 30562
SKYNET 5D               
1 39034U 12075A   21116.53109247  .00000097  00000-0  00000-0 0  9992
2 39034   0.0765 357.5138 0003641  34.4244  66.7554  1.00270177 30344
MEXSAT 3                
1 39035U 12075B   21116.49771343 -.00000027  00000-0  00000-0 0  9994
2 39035   0.0186 256.8839 0002186 141.7524 240.4451  1.00269299 30358
TDRS 11                 
1 39070U 13004A   21116.56508507  .00000072  00000-0  00000-0 0  9993
2 39070   3.4000 336.6183 0006586  46.6812 220.6483  1.00265968 27865
